STARLINK-2693
1 18461C 21040AK  21326.18213000 -.00012401  00000-0 -83102-3 0  3260
2 18461  53.0550  27.9138 0001121  76.0259  39.5479 15.06406333    16
